start=new Date('2023-01-12T00:00:00.000Z').valueOf();
sats=[{"BSTAR":"0.00008656800000","TIME_SYSTEM":"UTC","MEAN_ANOMALY":"313.6858","CLASSIFICATION_TYPE":"U","RCS_SIZE":"LARGE","OBJECT_TYPE":"PAYLOAD","MEAN_MOTION":"15.08836423","LAUNCH_DATE":"2022-05-06","PERIAPSIS":"538.141","REF_FRAME":"TEME","RA_OF_ASC_NODE":"194.6574","DECAY_DATE":null,"TLE_LINE1":"1 52475U 22049AA  23011.79800049  .00001090  00000-0  86568-4 0  9991","OBJECT_ID":"2022-049AA","ECCENTRICITY":"0.00023350","MEAN_ELEMENT_THEORY":"SGP4","FILE":"3740419","PERIOD":"95.438","EPOCH":"2023-01-11T19:09:07.242336","OBJECT_NAME":"STARLINK-3882","GP_ID":"222825346","ELEMENT_SET_NO":"999","SEMIMAJOR_AXIS":"6917.891","COUNTRY_CODE":"US","APOAPSIS":"541.372","CENTER_NAME":"EARTH","ARG_OF_PERICENTER":"46.4327","TLE_LINE2":"2 52475  53.2148 194.6574 0002335  46.4327 313.6858 15.08836423 38200","MEAN_MOTION_DDOT":"0.0000000000000","INCLINATION":"53.2148","SITE":"AFETR","NORAD_CAT_ID":"52475","REV_AT_EPOCH":"3820","MEAN_MOTION_DOT":"0.00001090","EPHEMERIS_TYPE":"0"},{"EPHEMERIS_TYPE":"0","MEAN_MOTION_DOT":"-0.00002115","REV_AT_EPOCH":"3959","NORAD_CAT_ID":"52476","SITE":"AFETR","MEAN_MOTION_DDOT":"0.0000000000000","INCLINATION":"53.2168","TLE_LINE2":"2 52476  53.2168 184.2859 0002947  46.0272 314.0963 15.08831379 39598","CENTER_NAME":"EARTH","ARG_OF_PERICENTER":"46.0272","APOAPSIS":"541.810","COUNTRY_CODE":"US","SEMIMAJOR_AXIS":"6917.907","GP_ID":"222826098","ELEMENT_SET_NO":"999","OBJECT_NAME":"STARLINK-3835","EPOCH":"2023-01-11T21:05:39.267744","PERIOD":"95.438","FILE":"3740419","MEAN_ELEMENT_THEORY":"SGP4","ECCENTRICITY":"0.00029470","TLE_LINE1":"1 52476U 22049AB  23011.87892671 -.00002115  00000-0 -11478-3 0  9991","OBJECT_ID":"2022-049AB","DECAY_DATE":null,"RA_OF_ASC_NODE":"184.2859","PERIAPSIS":"537.733","LAUNCH_DATE":"2022-05-06","REF_FRAME":"TEME","MEAN_MOTION":"15.08831379","OBJECT_TYPE":"PAYLOAD","RCS_SIZE":"LARGE","CLASSIFICATION_TYPE":"U","BSTAR":"-0.00011478000000","TIME_SYSTEM":"UTC","MEAN_ANOMALY":"314.0963"},{"TLE_LINE2":"2 52477  53.2173 184.2571 0003549  30.7855 329.3345 15.08843750 39591","SITE":"AFETR","MEAN_MOTION_DDOT":"0.0000000000000","INCLINATION":"53.2173","MEAN_MOTION_DOT":"0.00001291","REV_AT_EPOCH":"3959","NORAD_CAT_ID":"52477","EPHEMERIS_TYPE":"0","OBJECT_NAME":"STARLINK-3860","GP_ID":"222825844","ELEMENT_SET_NO":"999","SEMIMAJOR_AXIS":"6917.869","COUNTRY_CODE":"US","CENTER_NAME":"EARTH","ARG_OF_PERICENTER":"30.7855","APOAPSIS":"542.189","RA_OF_ASC_NODE":"184.2571","DECAY_DATE":null,"OBJECT_ID":"2022-049AC","TLE_LINE1":"1 52477U 22049AC  23011.88626001  .00001291  00000-0  99202-4 0  9999","ECCENTRICITY":"0.00035490","MEAN_ELEMENT_THEORY":"SGP4","FILE":"3740419","EPOCH":"2023-01-11T21:16:12.864864","PERIOD":"95.437","CLASSIFICATION_TYPE":"U","BSTAR":"0.00009920200000","MEAN_ANOMALY":"329.3345","TIME_SYSTEM":"UTC","RCS_SIZE":"LARGE","OBJECT_TYPE":"PAYLOAD","PERIAPSIS":"537.279","LAUNCH_DATE":"2022-05-06","REF_FRAME":"TEME","MEAN_MOTION":"15.08843750"},{"TLE_LINE2":"2 52478  53.2145 194.6964 0001780  51.0555 309.0595 15.08853587 39445","INCLINATION":"53.2145","MEAN_MOTION_DDOT":"0.0000000000000","SITE":"AFETR","NORAD_CAT_ID":"52478","MEAN_MOTION_DOT":"0.00001327","REV_AT_EPOCH":"3944","EPHEMERIS_TYPE":"0","OBJECT_NAME":"STARLINK-3825","ELEMENT_SET_NO":"999","GP_ID":"222825097","SEMIMAJOR_AXIS":"6917.839","COUNTRY_CODE":"US","APOAPSIS":"540.935","ARG_OF_PERICENTER":"51.0555","CENTER_NAME":"EARTH","RA_OF_ASC_NODE":"194.6964","DECAY_DATE":null,"OBJECT_ID":"2022-049AD","TLE_LINE1":"1 52478U 22049AD  23011.78965853  .00001327  00000-0  10143-3 0  9996","ECCENTRICITY":"0.00017800","MEAN_ELEMENT_THEORY":"SGP4","FILE":"3740419","PERIOD":"95.437","EPOCH":"2023-01-11T18:57:06.496992","BSTAR":"0.00010143000000","MEAN_ANOMALY":"309.0595","TIME_SYSTEM":"UTC","CLASSIFICATION_TYPE":"U","RCS_SIZE":"LARGE","OBJECT_TYPE":"PAYLOAD","MEAN_MOTION":"15.08853587","LAUNCH_DATE":"2022-05-06","PERIAPSIS":"538.472","REF_FRAME":"TEME"},{"OBJECT_NAME":"STARLINK-3878","ELEMENT_SET_NO":"999","GP_ID":"222824846","SEMIMAJOR_AXIS":"6917.901","COUNTRY_CODE":"US","ARG_OF_PERICENTER":"47.1333","CENTER_NAME":"EARTH","APOAPSIS":"541.722","TLE_LINE2":"2 52479  53.2166 184.3199 0002827  47.1333 312.9896 15.08833178 39595","SITE":"AFETR","INCLINATION":"53.2166","MEAN_MOTION_DDOT":"0.0000000000000","MEAN_MOTION_DOT":"-0.00001767","REV_AT_EPOCH":"3959","NORAD_CAT_ID":"52479","EPHEMERIS_TYPE":"0","CLASSIFICATION_TYPE":"U","BSTAR":"-0.00009293700000","TIME_SYSTEM":"UTC","MEAN_ANOMALY":"312.9896","RCS_SIZE":"LARGE","OBJECT_TYPE":"PAYLOAD","MEAN_MOTION":"15.08833178","LAUNCH_DATE":"2022-05-06","PERIAPSIS":"537.811","REF_FRAME":"TEME","RA_OF_ASC_NODE":"184.3199","DECAY_DATE":null,"OBJECT_ID":"2022-049AE","TLE_LINE1":"1 52479U 22049AE  23011.87155930 -.00001767  00000-0 -92937-4 0  9996","ECCENTRICITY":"0.00028270","MEAN_ELEMENT_THEORY":"SGP4","FILE":"3740419","EPOCH":"2023-01-11T20:55:02.723520","PERIOD":"95.438"},{"NORAD_CAT_ID":"52480","REV_AT_EPOCH":"3821","MEAN_MOTION_DOT":"0.00000561","EPHEMERIS_TYPE":"0","TLE_LINE2":"2 52480  53.2150 194.4155 0002594  43.8698 316.2500 15.08844043 38212","MEAN_MOTION_DDOT":"0.0000000000000","INCLINATION":"53.2150","SITE":"AFETR","COUNTRY_CODE":"US","APOAPSIS":"541.528","CENTER_NAME":"EARTH","ARG_OF_PERICENTER":"43.8698","OBJECT_NAME":"STARLINK-3839","ELEMENT_SET_NO":"999","GP_ID":"222825598","SEMIMAJOR_AXIS":"6917.868","MEAN_ELEMENT_THEORY":"SGP4","FILE":"3740419","PERIOD":"95.437","EPOCH":"2023-01-11T20:27:13.656960","RA_OF_ASC_NODE":"194.4155","DECAY_DATE":null,"OBJECT_ID":"2022-049AF","TLE_LINE1":"1 52480U 22049AF  23011.85224140  .00000561  00000-0  53349-4 0  9999","ECCENTRICITY":"0.00025940","OBJECT_TYPE":"PAYLOAD","LAUNCH_DATE":"2022-05-06","MEAN_MOTION":"15.08844043","PERIAPSIS":"537.939","REF_FRAME":"TEME","MEAN_ANOMALY":"316.2500","BSTAR":"0.00005334900000","TIME_SYSTEM":"UTC","CLASSIFICATION_TYPE":"U","RCS_SIZE":"LARGE"},{"COUNTRY_CODE":"US","CENTER_NAME":"EARTH","ARG_OF_PERICENTER":"41.0815","APOAPSIS":"541.179","GP_ID":"222826345","ELEMENT_SET_NO":"999","SEMIMAJOR_AXIS":"6917.849","OBJECT_NAME":"STARLINK-3842","REV_AT_EPOCH":"3944","MEAN_MOTION_DOT":"0.00002082","NORAD_CAT_ID":"52481","EPHEMERIS_TYPE":"0","SITE":"AFETR","INCLINATION":"53.2160","MEAN_MOTION_DDOT":"0.0000000000000","TLE_LINE2":"2 52481  53.2160 194.6879 0002118  41.0815 319.0337 15.08850235 39447","PERIAPSIS":"538.249","LAUNCH_DATE":"2022-05-06","REF_FRAME":"TEME","MEAN_MOTION":"15.08850235","OBJECT_TYPE":"PAYLOAD","RCS_SIZE":"LARGE","CLASSIFICATION_TYPE":"U","BSTAR":"0.00014887000000","MEAN_ANOMALY":"319.0337","TIME_SYSTEM":"UTC","EPOCH":"2023-01-11T19:02:25.215360","PERIOD":"95.437","MEAN_ELEMENT_THEORY":"SGP4","FILE":"3740419","OBJECT_ID":"2022-049AG","TLE_LINE1":"1 52481U 22049AG  23011.79334740  .00002082  00000-0  14887-3 0  9994","ECCENTRICITY":"0.00021180","RA_OF_ASC_NODE":"194.6879","DECAY_DATE":null},{"PERIOD":"95.437","EPOCH":"2023-01-11T20:44:26.662272","MEAN_ELEMENT_THEORY":"SGP4","FILE":"3740419","OBJECT_ID":"2022-049AH","TLE_LINE1":"1 52482U 22049AH  23011.86419748  .00000660  00000-0  59553-4 0  9995","ECCENTRICITY":"0.00025470","RA_OF_ASC_NODE":"184.3471","DECAY_DATE":null,"MEAN_MOTION":"15.08847297","LAUNCH_DATE":"2022-05-06","PERIAPSIS":"537.961","REF_FRAME":"TEME","OBJECT_TYPE":"PAYLOAD","RCS_SIZE":"LARGE","MEAN_ANOMALY":"298.4960","BSTAR":"0.00005955300000","TIME_SYSTEM":"UTC","CLASSIFICATION_TYPE":"U","NORAD_CAT_ID":"52482","REV_AT_EPOCH":"3835","MEAN_MOTION_DOT":"0.00000660","EPHEMERIS_TYPE":"0","MEAN_MOTION_DDOT":"0.0000000000000","INCLINATION":"53.2163","SITE":"AFETR","TLE_LINE2":"2 52482  53.2163 184.3471 0002547  61.6288 298.4960 15.08847297 38358","COUNTRY_CODE":"US","APOAPSIS":"541.485","CENTER_NAME":"EARTH","ARG_OF_PERICENTER":"61.6288","GP_ID":"222824598","ELEMENT_SET_NO":"999","SEMIMAJOR_AXIS":"6917.858","OBJECT_NAME":"STARLINK-3813"},{"RCS_SIZE":"LARGE","CLASSIFICATION_TYPE":"U","BSTAR":"0.00068714000000","TIME_SYSTEM":"UTC","MEAN_ANOMALY":"309.9252","LAUNCH_DATE":"2022-05-06","MEAN_MOTION":"15.08874424","PERIAPSIS":"537.548","REF_FRAME":"TEME","OBJECT_TYPE":"PAYLOAD","TLE_LINE1":"1 52483U 22049AJ  23011.87524278  .00010675  00000-0  68714-3 0  9997","OBJECT_ID":"2022-049AJ","ECCENTRICITY":"0.00030240","RA_OF_ASC_NODE":"184.2970","DECAY_DATE":null,"EPOCH":"2023-01-11T21:00:20.976192","PERIOD":"95.435","MEAN_ELEMENT_THEORY":"SGP4","FILE":"3740419","GP_ID":"222825347","ELEMENT_SET_NO":"999","SEMIMAJOR_AXIS":"6917.775","OBJECT_NAME":"STARLINK-3875","COUNTRY_CODE":"US","CENTER_NAME":"EARTH","ARG_OF_PERICENTER":"50.2006","APOAPSIS":"541.732","SITE":"AFETR","INCLINATION":"53.2160","MEAN_MOTION_DDOT":"0.0000000000000","TLE_LINE2":"2 52483  53.2160 184.2970 0003024  50.2006 309.9252 15.08874424 39593","MEAN_MOTION_DOT":"0.00010675","REV_AT_EPOCH":"3959","NORAD_CAT_ID":"52483","EPHEMERIS_TYPE":"0"},{"OBJECT_TYPE":"PAYLOAD","MEAN_MOTION":"15.08849278","LAUNCH_DATE":"2022-05-06","PERIAPSIS":"537.483","REF_FRAME":"TEME","MEAN_ANOMALY":"325.2278","BSTAR":"0.00008202600000","TIME_SYSTEM":"UTC","CLASSIFICATION_TYPE":"U","RCS_SIZE":"LARGE","FILE":"3740419","MEAN_ELEMENT_THEORY":"SGP4","PERIOD":"95.437","EPOCH":"2023-01-11T18:46:31.071648","DECAY_DATE":null,"RA_OF_ASC_NODE":"194.7303","ECCENTRICITY":"0.00032290","TLE_LINE1":"1 52484U 22049AK  23011.78230407  .00001017  00000-0  82026-4 0  9999","OBJECT_ID":"2022-049AK","APOAPSIS":"541.951","CENTER_NAME":"EARTH","ARG_OF_PERICENTER":"34.8925","COUNTRY_CODE":"US","OBJECT_NAME":"STARLINK-3887","SEMIMAJOR_AXIS":"6917.852","GP_ID":"222826099","ELEMENT_SET_NO":"999","EPHEMERIS_TYPE":"0","NORAD_CAT_ID":"52484","MEAN_MOTION_DOT":"0.00001017","REV_AT_EPOCH":"3820","TLE_LINE2":"2 52484  53.2161 194.7303 0003229  34.8925 325.2278 15.08849278 38201","MEAN_MOTION_DDOT":"0.0000000000000","INCLINATION":"53.2161","SITE":"AFETR"}];
